COSMOS 2251             
1 22675U 93036A   24274.71183929  .00000534  00000+0  20404-3 0  9996
2 22675  74.0409  36.0901 0025617 228.9968 130.8968 14.32974515634988
